[{"OBJECT_NAME":"STARLINK-4440","OBJECT_ID":"2022-105Z","EPOCH":"2025-10-21T13:45:24.104160","MEAN_MOTION":15.01260733,"ECCENTRICITY":0.0001484,"INCLINATION":97.6008,"RA_OF_ASC_NODE":174.0138,"ARG_OF_PERICENTER":84.6436,"MEAN_ANOMALY":275.4957,"EPHEMERIS_TYPE":0,"CLASSIFICATION_TYPE":"U","NORAD_CAT_ID":53671,"ELEMENT_SET_NO":999,"REV_AT_EPOCH":17236,"BSTAR":-5.3696e-5,"MEAN_MOTION_DOT":-7.48e-6,"MEAN_MOTION_DDOT":0},{"OBJECT_NAME":"STARLINK-4428","OBJECT_ID":"2022-105AA","EPOCH":"2025-10-21T18:14:19.081248","MEAN_MOTION":15.01265405,"ECCENTRICITY":0.0001852,"INCLINATION":97.6034,"RA_OF_ASC_NODE":174.2182,"ARG_OF_PERICENTER":89.1047,"MEAN_ANOMALY":271.0389,"EPHEMERIS_TYPE":0,"CLASSIFICATION_TYPE":"U","NORAD_CAT_ID":53672,"ELEMENT_SET_NO":999,"REV_AT_EPOCH":17239,"BSTAR":0.00017526,"MEAN_MOTION_DOT":2.194e-5,"MEAN_MOTION_DDOT":0},{"OBJECT_NAME":"STARLINK-4456","OBJECT_ID":"2022-105AB","EPOCH":"2025-10-21T14:55:38.623584","MEAN_MOTION":15.05654178,"ECCENTRICITY":0.0002825,"INCLINATION":97.6013,"RA_OF_ASC_NODE":174.1646,"ARG_OF_PERICENTER":82.6361,"MEAN_ANOMALY":277.5187,"EPHEMERIS_TYPE":0,"CLASSIFICATION_TYPE":"U","NORAD_CAT_ID":53673,"ELEMENT_SET_NO":999,"REV_AT_EPOCH":17237,"BSTAR":5.0741e-5,"MEAN_MOTION_DOT":6.71e-6,"MEAN_MOTION_DDOT":0},{"OBJECT_NAME":"STARLINK-4620","OBJECT_ID":"2022-105AC","EPOCH":"2025-10-21T15:13:01.969248","MEAN_MOTION":15.01257489,"ECCENTRICITY":0.0001418,"INCLINATION":97.6015,"RA_OF_ASC_NODE":174.0688,"ARG_OF_PERICENTER":74.4647,"MEAN_ANOMALY":285.6734,"EPHEMERIS_TYPE":0,"CLASSIFICATION_TYPE":"U","NORAD_CAT_ID":53674,"ELEMENT_SET_NO":999,"REV_AT_EPOCH":17237,"BSTAR":5.721e-5,"MEAN_MOTION_DOT":6.77e-6,"MEAN_MOTION_DDOT":0},{"OBJECT_NAME":"STARLINK-4617","OBJECT_ID":"2022-105AD","EPOCH":"2025-10-21T19:58:42.093696","MEAN_MOTION":15.05644014,"ECCENTRICITY":0.0002093,"INCLINATION":97.6015,"RA_OF_ASC_NODE":174.4211,"ARG_OF_PERICENTER":82.9861,"MEAN_ANOMALY":277.1604,"EPHEMERIS_TYPE":0,"CLASSIFICATION_TYPE":"U","NORAD_CAT_ID":53675,"ELEMENT_SET_NO":999,"REV_AT_EPOCH":17241,"BSTAR":0.00012066,"MEAN_MOTION_DOT":1.68e-5,"MEAN_MOTION_DDOT":0},{"OBJECT_NAME":"STARLINK-4621","OBJECT_ID":"2022-105AE","EPOCH":"2025-10-21T15:07:42.196800","MEAN_MOTION":15.01261981,"ECCENTRICITY":0.0001673,"INCLINATION":97.6018,"RA_OF_ASC_NODE":174.0671,"ARG_OF_PERICENTER":109.5426,"MEAN_ANOMALY":250.5979,"EPHEMERIS_TYPE":0,"CLASSIFICATION_TYPE":"U","NORAD_CAT_ID":53676,"ELEMENT_SET_NO":999,"REV_AT_EPOCH":17237,"BSTAR":-2.206e-5,"MEAN_MOTION_DOT":-3.42e-6,"MEAN_MOTION_DDOT":0},{"OBJECT_NAME":"STARLINK-4579","OBJECT_ID":"2022-105AF","EPOCH":"2025-10-21T15:47:28.785120","MEAN_MOTION":15.05646359,"ECCENTRICITY":0.000257,"INCLINATION":97.6036,"RA_OF_ASC_NODE":174.1977,"ARG_OF_PERICENTER":89.5909,"MEAN_ANOMALY":270.5612,"EPHEMERIS_TYPE":0,"CLASSIFICATION_TYPE":"U","NORAD_CAT_ID":53677,"ELEMENT_SET_NO":999,"REV_AT_EPOCH":17238,"BSTAR":6.6021e-5,"MEAN_MOTION_DOT":8.92e-6,"MEAN_MOTION_DDOT":0},{"OBJECT_NAME":"STARLINK-4632","OBJECT_ID":"2022-105AH","EPOCH":"2025-10-21T14:59:38.571072","MEAN_MOTION":15.05642531,"ECCENTRICITY":0.0002338,"INCLINATION":97.6017,"RA_OF_ASC_NODE":174.2337,"ARG_OF_PERICENTER":84.1323,"MEAN_ANOMALY":276.0171,"EPHEMERIS_TYPE":0,"CLASSIFICATION_TYPE":"U","NORAD_CAT_ID":53679,"ELEMENT_SET_NO":999,"REV_AT_EPOCH":17238,"BSTAR":8.7239e-5,"MEAN_MOTION_DOT":1.198e-5,"MEAN_MOTION_DDOT":0},{"OBJECT_NAME":"STARLINK-4630","OBJECT_ID":"2022-105AJ","EPOCH":"2025-10-21T15:43:29.519328","MEAN_MOTION":15.05644694,"ECCENTRICITY":0.0002597,"INCLINATION":97.6026,"RA_OF_ASC_NODE":174.1807,"ARG_OF_PERICENTER":88.1363,"MEAN_ANOMALY":272.0162,"EPHEMERIS_TYPE":0,"CLASSIFICATION_TYPE":"U","NORAD_CAT_ID":53680,"ELEMENT_SET_NO":999,"REV_AT_EPOCH":17238,"BSTAR":4.679e-5,"MEAN_MOTION_DOT":6.14e-6,"MEAN_MOTION_DDOT":0},{"OBJECT_NAME":"STARLINK-4424","OBJECT_ID":"2022-105AK","EPOCH":"2025-10-21T14:57:02.126592","MEAN_MOTION":15.01260098,"ECCENTRICITY":0.0002087,"INCLINATION":97.6028,"RA_OF_ASC_NODE":174.0837,"ARG_OF_PERICENTER":79.1915,"MEAN_ANOMALY":280.9544,"EPHEMERIS_TYPE":0,"CLASSIFICATION_TYPE":"U","NORAD_CAT_ID":53681,"ELEMENT_SET_NO":999,"REV_AT_EPOCH":17237,"BSTAR":0.00013334,"MEAN_MOTION_DOT":1.655e-5,"MEAN_MOTION_DDOT":0},{"OBJECT_NAME":"STARLINK-4438","OBJECT_ID":"2022-105AL","EPOCH":"2025-10-21T20:00:01.999008","MEAN_MOTION":15.04859588,"ECCENTRICITY":0.0002313,"INCLINATION":97.6025,"RA_OF_ASC_NODE":174.3149,"ARG_OF_PERICENTER":86.3,"MEAN_ANOMALY":73.2096,"EPHEMERIS_TYPE":0,"CLASSIFICATION_TYPE":"U","NORAD_CAT_ID":53682,"ELEMENT_SET_NO":999,"REV_AT_EPOCH":581,"BSTAR":-0.0035773,"MEAN_MOTION_DOT":-0.00050244,"MEAN_MOTION_DDOT":0},{"OBJECT_NAME":"STARLINK-4625","OBJECT_ID":"2022-105AM","EPOCH":"2025-10-21T15:05:24.694656","MEAN_MOTION":15.01240574,"ECCENTRICITY":0.0001629,"INCLINATION":97.6027,"RA_OF_ASC_NODE":174.0611,"ARG_OF_PERICENTER":88.1967,"MEAN_ANOMALY":271.9444,"EPHEMERIS_TYPE":0,"CLASSIFICATION_TYPE":"U","NORAD_CAT_ID":53683,"ELEMENT_SET_NO":999,"REV_AT_EPOCH":17237,"BSTAR":4.2537e-5,"MEAN_MOTION_DOT":4.88e-6,"MEAN_MOTION_DDOT":0},{"OBJECT_NAME":"STARLINK-4624","OBJECT_ID":"2022-105AN","EPOCH":"2025-10-21T15:29:00.573792","MEAN_MOTION":15.01282556,"ECCENTRICITY":6.51e-5,"INCLINATION":97.6012,"RA_OF_ASC_NODE":174.1468,"ARG_OF_PERICENTER":118.1979,"MEAN_ANOMALY":241.9311,"EPHEMERIS_TYPE":0,"CLASSIFICATION_TYPE":"U","NORAD_CAT_ID":53684,"ELEMENT_SET_NO":999,"REV_AT_EPOCH":17235,"BSTAR":-0.00053542,"MEAN_MOTION_DOT":-6.932e-5,"MEAN_MOTION_DDOT":0},{"OBJECT_NAME":"STARLINK-4626","OBJECT_ID":"2022-105AP","EPOCH":"2025-10-21T14:54:43.576416","MEAN_MOTION":15.01257465,"ECCENTRICITY":0.0002071,"INCLINATION":97.6032,"RA_OF_ASC_NODE":174.072,"ARG_OF_PERICENTER":83.2618,"MEAN_ANOMALY":276.8842,"EPHEMERIS_TYPE":0,"CLASSIFICATION_TYPE":"U","NORAD_CAT_ID":53685,"ELEMENT_SET_NO":999,"REV_AT_EPOCH":17237,"BSTAR":8.0637e-5,"MEAN_MOTION_DOT":9.77e-6,"MEAN_MOTION_DDOT":0},{"OBJECT_NAME":"STARLINK-4467","OBJECT_ID":"2022-105AQ","EPOCH":"2025-10-21T15:50:21.179040","MEAN_MOTION":15.01268254,"ECCENTRICITY":0.0004062,"INCLINATION":97.5998,"RA_OF_ASC_NODE":174.1572,"ARG_OF_PERICENTER":89.6157,"MEAN_ANOMALY":270.5532,"EPHEMERIS_TYPE":0,"CLASSIFICATION_TYPE":"U","NORAD_CAT_ID":53686,"ELEMENT_SET_NO":999,"REV_AT_EPOCH":17238,"BSTAR":0.00047256,"MEAN_MOTION_DOT":6.019e-5,"MEAN_MOTION_DDOT":0},{"OBJECT_NAME":"STARLINK-4569","OBJECT_ID":"2022-105AR","EPOCH":"2025-10-21T16:07:01.359264","MEAN_MOTION":15.04833019,"ECCENTRICITY":0.0002313,"INCLINATION":97.602,"RA_OF_ASC_NODE":174.1538,"ARG_OF_PERICENTER":88.9264,"MEAN_ANOMALY":271.2227,"EPHEMERIS_TYPE":0,"CLASSIFICATION_TYPE":"U","NORAD_CAT_ID":53687,"ELEMENT_SET_NO":999,"REV_AT_EPOCH":17238,"BSTAR":0.00015377,"MEAN_MOTION_DOT":2.111e-5,"MEAN_MOTION_DDOT":0},{"OBJECT_NAME":"STARLINK-4571","OBJECT_ID":"2022-105AS","EPOCH":"2025-10-21T14:46:22.546272","MEAN_MOTION":15.01257316,"ECCENTRICITY":0.0002591,"INCLINATION":97.603,"RA_OF_ASC_NODE":174.0629,"ARG_OF_PERICENTER":85.6376,"MEAN_ANOMALY":274.5145,"EPHEMERIS_TYPE":0,"CLASSIFICATION_TYPE":"U","NORAD_CAT_ID":53688,"ELEMENT_SET_NO":999,"REV_AT_EPOCH":17237,"BSTAR":6.6486e-5,"MEAN_MOTION_DOT":7.96e-6,"MEAN_MOTION_DDOT":0}]
