STARLINK-4440           
1 53671U 22105Z   25294.57319565 -.00000748  00000+0 -53696-4 0  9998
2 53671  97.6008 174.0138 0001484  84.6436 275.4957 15.01260733172362
STARLINK-4428           
1 53672U 22105AA  25294.75994307  .00002194  00000+0  17526-3 0  9998
2 53672  97.6034 174.2182 0001852  89.1047 271.0389 15.01265405172395
STARLINK-4456           
1 53673U 22105AB  25294.62197481  .00000671  00000+0  50741-4 0  9998
2 53673  97.6013 174.1646 0002825  82.6361 277.5187 15.05654178172373
STARLINK-4620           
1 53674U 22105AC  25294.63405057  .00000677  00000+0  57210-4 0  9995
2 53674  97.6015 174.0688 0001418  74.4647 285.6734 15.01257489172372
STARLINK-4617           
1 53675U 22105AD  25294.83243164  .00001680  00000+0  12066-3 0  9991
2 53675  97.6015 174.4211 0002093  82.9861 277.1604 15.05644014172416
STARLINK-4621           
1 53676U 22105AE  25294.63034950 -.00000342  00000+0 -22060-4 0  9993
2 53676  97.6018 174.0671 0001673 109.5426 250.5979 15.01261981172371
STARLINK-4579           
1 53677U 22105AF  25294.65797205  .00000892  00000+0  66021-4 0  9998
2 53677  97.6036 174.1977 0002570  89.5909 270.5612 15.05646359172389
STARLINK-4632           
1 53679U 22105AH  25294.62475198  .00001198  00000+0  87239-4 0  9995
2 53679  97.6017 174.2337 0002338  84.1323 276.0171 15.05642531172383
STARLINK-4630           
1 53680U 22105AJ  25294.65520277  .00000614  00000+0  46790-4 0  9998
2 53680  97.6026 174.1807 0002597  88.1363 272.0162 15.05644694172389
STARLINK-4424           
1 53681U 22105AK  25294.62294128  .00001655  00000+0  13334-3 0  9992
2 53681  97.6028 174.0837 0002087  79.1915 280.9544 15.01260098172370
STARLINK-4438           
1 53682U 22105AL  25294.83335647 -.00050244  00000+0 -35773-2 0  9998
2 53682  97.6025 174.3149 0002313  86.3000  73.2096 15.04859588  5814
STARLINK-4625           
1 53683U 22105AM  25294.62875804  .00000488  00000+0  42537-4 0  9991
2 53683  97.6027 174.0611 0001629  88.1967 271.9444 15.01240574172375
STARLINK-4624           
1 53684U 22105AN  25294.64514553 -.00006932  00000+0 -53542-3 0  9994
2 53684  97.6012 174.1468 0000651 118.1979 241.9311 15.01282556172356
STARLINK-4626           
1 53685U 22105AP  25294.62133769  .00000977  00000+0  80637-4 0  9996
2 53685  97.6032 174.0720 0002071  83.2618 276.8842 15.01257465172378
STARLINK-4467           
1 53686U 22105AQ  25294.65996735  .00006019  00000+0  47256-3 0  9992
2 53686  97.5998 174.1572 0004062  89.6157 270.5532 15.01268254172381
STARLINK-4569           
1 53687U 22105AR  25294.67154351  .00002111  00000+0  15377-3 0  9993
2 53687  97.6020 174.1538 0002313  88.9264 271.2227 15.04833019172388
STARLINK-4571           
1 53688U 22105AS  25294.61553873  .00000796  00000+0  66486-4 0  9995
2 53688  97.6030 174.0629 0002591  85.6376 274.5145 15.01257316172377
